CCSDS_OMM_VERS,COMMENT,CREATION_DATE,ORIGINATOR,OBJECT_NAME,OBJECT_ID,CENTER_NAME,REF_FRAME,TIME_SYSTEM,MEAN_ELEMENT_THEORY,EPOCH,MEAN_MOTION,ECCENTRICITY,INCLINATION,RA_OF_ASC_NODE,ARG_OF_PERICENTER,MEAN_ANOMALY,EPHEMERIS_TYPE,CLASSIFICATION_TYPE,NORAD_CAT_ID,ELEMENT_SET_NO,REV_AT_EPOCH,BSTAR,MEAN_MOTION_DOT,MEAN_MOTION_DDOT,SEMIMAJOR_AXIS,PERIOD,APOAPSIS,PERIAPSIS,OBJECT_TYPE,RCS_SIZE,COUNTRY_CODE,LAUNCH_DATE,SITE,DECAY_DATE,FILE,GP_ID,TLE_LINE0,TLE_LINE1,TLE_LINE2
"2.0","GENERATED VIA SPACE-TRACK.ORG API","2012-10-28T16:52:25","18 SPCS","BLITS","2009-049G","EARTH","TEME","UTC","SGP4","2012-10-28T17:25:24.034367","14.21591868","0.00042810","98.6307","353.4281","31.4387","328.7042","0","U","35871","999","16093","0.00002395900000","0.00000009","0.0000000000000","7198.115","101.294","823.062","816.899","PAYLOAD","SMALL","CIS","2009-09-17","TTMTR","","1375682","91248174","0 BLITS","1 35871U 09049G   12302.72597262  .00000009  00000-0  23959-4 0  9995","2 35871 098.6307 353.4281 0004281 031.4387 328.7042 14.21591868160936"
"2.0","GENERATED VIA SPACE-TRACK.ORG API","2012-10-29T00:48:01","18 SPCS","BLITS","2009-049G","EARTH","TEME","UTC","SGP4","2012-10-29T01:52:09.696000","14.21591855","0.00042720","98.6307","353.7722","30.6286","329.5136","0","U","35871","999","16098","0.00002207900000","0.00000005","0.0000000000000","7198.115","101.294","823.055","816.905","PAYLOAD","SMALL","CIS","2009-09-17","TTMTR","","1375799","91250713","0 BLITS","1 35871U 09049G   12303.07789000  .00000005  00000-0  22079-4 0  9995","2 35871 098.6307 353.7722 0004272 030.6286 329.5136 14.21591855160982"
"2.0","GENERATED VIA SPACE-TRACK.ORG API","2012-10-29T08:47:23","18 SPCS","BLITS","2009-049G","EARTH","TEME","UTC","SGP4","2012-10-29T03:33:30.832991","14.21591807","0.00042400","98.6303","353.8408","30.7152","329.4269","0","U","35871","999","16099","0.00001947000000","0.00000000","0.0000000000000","7198.116","101.294","823.033","816.929","PAYLOAD","SMALL","CIS","2009-09-17","TTMTR","","1375957","91253756","0 BLITS","1 35871U 09049G   12303.14827353 -.00000000  00000-0  19470-4 0  9994","2 35871 098.6303 353.8408 0004240 030.7152 329.4269 14.21591807160992"
"2.0","GENERATED VIA SPACE-TRACK.ORG API","2012-10-29T16:46:28","18 SPCS","BLITS","2009-049G","EARTH","TEME","UTC","SGP4","2012-10-29T17:04:19.884863","14.21591658","0.00042030","98.6301","354.3911","29.4331","330.7065","0","U","35871","999","16107","0.00001254800000","-0.00000016","0.0000000000000","7198.116","101.294","823.006","816.956","PAYLOAD","SMALL","CIS","2009-09-17","TTMTR","","1376249","91256786","0 BLITS","1 35871U 09049G   12303.71134126 -.00000016  00000-0  12548-4 0  9992","2 35871 098.6301 354.3911 0004203 029.4331 330.7065 14.21591658161071"
"2.0","GENERATED VIA SPACE-TRACK.ORG API","2012-10-30T00:46:06","18 SPCS","BLITS","2009-049G","EARTH","TEME","UTC","SGP4","2012-10-30T03:12:26.702495","14.21591687","0.00041940","98.6298","354.8038","28.1656","331.9750","0","U","35871","999","16113","0.00001140600000","-0.00000018","0.0000000000000","7198.116","101.294","823.000","816.962","PAYLOAD","SMALL","CIS","2009-09-17","TTMTR","","1376707","91259769","0 BLITS","1 35871U 09049G   12304.13364239 -.00000018  00000-0  11406-4 0  9993","2 35871 098.6298 354.8038 0004194 028.1656 331.9750 14.21591687161139"
"2.0","GENERATED VIA SPACE-TRACK.ORG API","2012-10-30T16:45:40","18 SPCS","BLITS","2009-049G","EARTH","TEME","UTC","SGP4","2012-10-30T16:43:15.779423","14.21591558","0.00041740","98.6299","355.3546","26.7060","333.4337","0","U","35871","999","16121","0.00000512330000","-0.00000032","0.0000000000000","7198.116","101.294","822.986","816.977","PAYLOAD","SMALL","CIS","2009-09-17","TTMTR","","1377165","91265845","0 BLITS","1 35871U 09049G   12304.69671041 -.00000032  00000-0  51233-5 0  9995","2 35871 098.6299 355.3546 0004174 026.7060 333.4337 14.21591558161215"
"2.0","GENERATED VIA SPACE-TRACK.ORG API","2012-10-31T00:46:49","18 SPCS","BLITS","2009-049G","EARTH","TEME","UTC","SGP4","2012-10-31T01:10:01.430687","14.21591661","0.00041920","98.6299","355.6986","25.6033","334.5357","0","U","35871","999","16126","0.00000895490000","-0.00000023","0.0000000000000","7198.116","101.294","822.998","816.964","PAYLOAD","SMALL","CIS","2009-09-17","TTMTR","","1377411","91268636","0 BLITS","1 35871U 09049G   12305.04862767 -.00000023  00000-0  89549-5 0  9993","2 35871 098.6299 355.6986 0004192 025.6033 334.5357 14.21591661161268"
"2.0","GENERATED VIA SPACE-TRACK.ORG API","2012-10-31T08:48:50","18 SPCS","BLITS","2009-049G","EARTH","TEME","UTC","SGP4","2012-10-31T02:51:22.552128","14.21591889","0.00041730","98.6297","355.7675","25.0619","335.0789","0","U","35871","999","16127","0.00001571800000","-0.00000009","0.0000000000000","7198.115","101.294","822.984","816.977","PAYLOAD","SMALL","CIS","2009-09-17","TTMTR","","1377602","91271728","0 BLITS","1 35871U 09049G   12305.11901102 -.00000009  00000-0  15718-4 0  9998","2 35871 098.6297 355.7675 0004173 025.0619 335.0789 14.21591889161273"
"2.0","GENERATED VIA SPACE-TRACK.ORG API","2012-10-31T16:43:32","18 SPCS","BLITS","2009-049G","EARTH","TEME","UTC","SGP4","2012-10-31T16:22:11.560800","14.21591953","0.00041510","98.6300","356.3185","23.9772","336.1606","0","U","35871","999","16135","0.00001742000000","-0.00000005","0.0000000000000","7198.115","101.294","822.968","816.992","PAYLOAD","SMALL","CIS","2009-09-17","TTMTR","","1377858","91274819","0 BLITS","1 35871U 09049G   12305.68207825 -.00000005  00000-0  17420-4 0  9999","2 35871 098.6300 356.3185 0004151 023.9772 336.1606 14.21591953161355"
"2.0","GENERATED VIA SPACE-TRACK.ORG API","2012-11-01T00:39:19","18 SPCS","BLITS","2009-049G","EARTH","TEME","UTC","SGP4","2012-11-01T02:30:18.328320","14.21592009","0.00041580","98.6300","356.7314","22.9513","337.1851","0","U","35871","999","16141","0.00001831500000","-0.00000003","0.0000000000000","7198.115","101.294","822.973","816.987","PAYLOAD","SMALL","CIS","2009-09-17","TTMTR","","1378063","91277510","0 BLITS","1 35871U 09049G   12306.10437880 -.00000003  00000-0  18315-4 0  9995","2 35871 098.6300 356.7314 0004158 022.9513 337.1851 14.21592009161415"
"2.0","GENERATED VIA SPACE-TRACK.ORG API","2012-11-01T06:22:34","18 SPCS","BLITS","2009-049G","EARTH","TEME","UTC","SGP4","2012-11-01T04:11:39.456671","14.21592285","0.00041380","98.6299","356.8003","22.6317","337.5070","0","U","35871","999","16142","0.00002787100000","0.00000018","0.0000000000000","7198.114","101.294","822.958","817.000","PAYLOAD","SMALL","CIS","2009-09-17","TTMTR","","1378161","91279700","0 BLITS","1 35871U 09049G   12306.17476223  .00000018  00000-0  27871-4 0  9998","2 35871 098.6299 356.8003 0004138 022.6317 337.5070 14.21592285161429"
"2.0","GENERATED VIA SPACE-TRACK.ORG API","2012-11-01T16:58:13","18 SPCS","BLITS","2009-049G","EARTH","TEME","UTC","SGP4","2012-11-01T14:19:46.183584","14.21592448","0.00040870","98.6297","357.2130","22.2794","337.8574","0","U","35871","999","16148","0.00003093600000","0.00000025","0.0000000000000","7198.113","101.294","822.920","817.037","PAYLOAD","SMALL","CIS","2009-09-17","TTMTR","","1378409","91283476","0 BLITS","1 35871U 09049G   12306.59706231  .00000025  00000-0  30936-4 0  9993","2 35871 098.6297 357.2130 0004087 022.2794 337.8574 14.21592448161480"
"2.0","GENERATED VIA SPACE-TRACK.ORG API","2012-11-02T00:40:13","18 SPCS","BLITS","2009-049G","EARTH","TEME","UTC","SGP4","2012-11-02T03:50:35.189663","14.21592400","0.00041100","98.6296","357.7636","20.6889","339.4442","0","U","35871","999","16156","0.00002679400000","0.00000016","0.0000000000000","7198.114","101.294","822.937","817.020","PAYLOAD","SMALL","CIS","2009-09-17","TTMTR","","1378668","91286402","0 BLITS","1 35871U 09049G   12307.16012951  .00000016  00000-0  26794-4 0  9993","2 35871 098.6296 357.7636 0004110 020.6889 339.4442 14.21592400161568"
"2.0","GENERATED VIA SPACE-TRACK.ORG API","2012-11-02T16:36:53","18 SPCS","BLITS","2009-049G","EARTH","TEME","UTC","SGP4","2012-11-02T13:58:41.980512","14.21592556","0.00040720","98.6297","358.1767","20.0671","340.0676","0","U","35871","999","16162","0.00003087700000","0.00000025","0.0000000000000","7198.113","101.294","822.909","817.047","PAYLOAD","SMALL","CIS","2009-09-17","TTMTR","","1378992","91292017","0 BLITS","1 35871U 09049G   12307.58243033  .00000025  00000-0  30877-4 0  9993","2 35871 098.6297 358.1767 0004072 020.0671 340.0676 14.21592556161625"
"2.0","GENERATED VIA SPACE-TRACK.ORG API","2012-11-03T00:44:17","18 SPCS","BLITS","2009-049G","EARTH","TEME","UTC","SGP4","2012-11-03T01:48:09.856511","14.21592638","0.00040910","98.6296","358.6584","18.7022","341.4302","0","U","35871","999","16169","0.00003210900000","0.00000027","0.0000000000000","7198.113","101.294","822.922","817.033","PAYLOAD","SMALL","CIS","2009-09-17","TTMTR","","1379278","91294615","0 BLITS","1 35871U 09049G   12308.07511408  .00000027  00000-0  32109-4 0  9994","2 35871 098.6296 358.6584 0004091 018.7022 341.4302 14.21592638161690"
"2.0","GENERATED VIA SPACE-TRACK.ORG API","2012-11-03T08:46:25","18 SPCS","BLITS","2009-049G","EARTH","TEME","UTC","SGP4","2012-11-03T03:29:30.989184","14.21592595","0.00040580","98.6293","358.7272","18.8215","341.3108","0","U","35871","999","16170","0.00003005400000","0.00000023","0.0000000000000","7198.113","101.294","822.899","817.057","PAYLOAD","SMALL","CIS","2009-09-17","TTMTR","","1379402","91297389","0 BLITS","1 35871U 09049G   12308.14549756  .00000023  00000-0  30054-4 0  9992","2 35871 098.6293 358.7272 0004058 018.8215 341.3108 14.21592595161707"
